CCSDS_OMM_VERS = 2.0
CREATION_DATE  = 
ORIGINATOR     = 

OBJECT_NAME    = STARLINK-36124
OBJECT_ID      = 2025-299V
CENTER_NAME    = EARTH
REF_FRAME      = TEME
TIME_SYSTEM    = UTC
MEAN_ELEMENT_THEORY = SGP/SGP4

EPOCH          = 2025-12-23T04:00:01.998720
MEAN_MOTION    = 15.92081892
ECCENTRICITY   = .0001348
INCLINATION    = 42.9982
RA_OF_ASC_NODE = 252.8029
ARG_OF_PERICENTER = 265.1282
MEAN_ANOMALY   = 295.9342

EPHEMERIS_TYPE = 0
CLASSIFICATION_TYPE = U
NORAD_CAT_ID   = 67121
ELEMENT_SET_NO = 999
REV_AT_EPOCH   = 248
BSTAR          = -.58079E-2
MEAN_MOTION_DOT = -.1992649E-1
MEAN_MOTION_DDOT = .10737E-2

CCSDS_OMM_VERS = 2.0
CREATION_DATE  = 
ORIGINATOR     = 

OBJECT_NAME    = STARLINK-36188
OBJECT_ID      = 2025-299W
CENTER_NAME    = EARTH
REF_FRAME      = TEME
TIME_SYSTEM    = UTC
MEAN_ELEMENT_THEORY = SGP/SGP4

EPOCH          = 2025-12-23T04:00:01.998720
MEAN_MOTION    = 15.92073099
ECCENTRICITY   = .0001369
INCLINATION    = 42.9985
RA_OF_ASC_NODE = 252.7994
ARG_OF_PERICENTER = 258.1475
MEAN_ANOMALY   = 304.3259

EPHEMERIS_TYPE = 0
CLASSIFICATION_TYPE = U
NORAD_CAT_ID   = 67122
ELEMENT_SET_NO = 999
REV_AT_EPOCH   = 248
BSTAR          = -.57038E-2
MEAN_MOTION_DOT = -.1956496E-1
MEAN_MOTION_DDOT = .10375E-2

CCSDS_OMM_VERS = 2.0
CREATION_DATE  = 
ORIGINATOR     = 

OBJECT_NAME    = STARLINK-36151
OBJECT_ID      = 2025-299X
CENTER_NAME    = EARTH
REF_FRAME      = TEME
TIME_SYSTEM    = UTC
MEAN_ELEMENT_THEORY = SGP/SGP4

EPOCH          = 2025-12-23T04:00:01.998720
MEAN_MOTION    = 15.92059682
ECCENTRICITY   = .0001744
INCLINATION    = 42.9987
RA_OF_ASC_NODE = 252.8075
ARG_OF_PERICENTER = 275.3101
MEAN_ANOMALY   = 284.0291

EPHEMERIS_TYPE = 0
CLASSIFICATION_TYPE = U
NORAD_CAT_ID   = 67123
ELEMENT_SET_NO = 999
REV_AT_EPOCH   = 248
BSTAR          = -.57273E-2
MEAN_MOTION_DOT = -.1963215E-1
MEAN_MOTION_DDOT = .1044E-2

CCSDS_OMM_VERS = 2.0
CREATION_DATE  = 
ORIGINATOR     = 

OBJECT_NAME    = STARLINK-36195
OBJECT_ID      = 2025-299Y
CENTER_NAME    = EARTH
REF_FRAME      = TEME
TIME_SYSTEM    = UTC
MEAN_ELEMENT_THEORY = SGP/SGP4

EPOCH          = 2025-12-23T04:00:01.998720
MEAN_MOTION    = 15.92086403
ECCENTRICITY   = .0001953
INCLINATION    = 42.9986
RA_OF_ASC_NODE = 252.7955
ARG_OF_PERICENTER = 269.4670
MEAN_ANOMALY   = 294.5974

EPHEMERIS_TYPE = 0
CLASSIFICATION_TYPE = U
NORAD_CAT_ID   = 67124
ELEMENT_SET_NO = 999
REV_AT_EPOCH   = 248
BSTAR          = -.57089E-2
MEAN_MOTION_DOT = -.1959728E-1
MEAN_MOTION_DDOT = .10408E-2

CCSDS_OMM_VERS = 2.0
CREATION_DATE  = 
ORIGINATOR     = 

OBJECT_NAME    = STARLINK-36219
OBJECT_ID      = 2025-299Z
CENTER_NAME    = EARTH
REF_FRAME      = TEME
TIME_SYSTEM    = UTC
MEAN_ELEMENT_THEORY = SGP/SGP4

EPOCH          = 2025-12-23T04:00:01.998720
MEAN_MOTION    = 15.92094559
ECCENTRICITY   = .0001509
INCLINATION    = 42.9984
RA_OF_ASC_NODE = 252.7915
ARG_OF_PERICENTER = 272.2686
MEAN_ANOMALY   = 293.2941

EPHEMERIS_TYPE = 0
CLASSIFICATION_TYPE = U
NORAD_CAT_ID   = 67125
ELEMENT_SET_NO = 999
REV_AT_EPOCH   = 248
BSTAR          = -.57169E-2
MEAN_MOTION_DOT = -.1963134E-1
MEAN_MOTION_DDOT = .10443E-2

CCSDS_OMM_VERS = 2.0
CREATION_DATE  = 
ORIGINATOR     = 

OBJECT_NAME    = STARLINK-36223
OBJECT_ID      = 2025-299AA
CENTER_NAME    = EARTH
REF_FRAME      = TEME
TIME_SYSTEM    = UTC
MEAN_ELEMENT_THEORY = SGP/SGP4

EPOCH          = 2025-12-23T04:00:01.998720
MEAN_MOTION    = 15.92095934
ECCENTRICITY   = .0001819
INCLINATION    = 42.9984
RA_OF_ASC_NODE = 252.7870
ARG_OF_PERICENTER = 268.8484
MEAN_ANOMALY   = 298.5509

EPHEMERIS_TYPE = 0
CLASSIFICATION_TYPE = U
NORAD_CAT_ID   = 67126
ELEMENT_SET_NO = 999
REV_AT_EPOCH   = 248
BSTAR          = -.57057E-2
MEAN_MOTION_DOT = -.1959558E-1
MEAN_MOTION_DDOT = .10408E-2

CCSDS_OMM_VERS = 2.0
CREATION_DATE  = 
ORIGINATOR     = 

OBJECT_NAME    = STARLINK-36164
OBJECT_ID      = 2025-299AB
CENTER_NAME    = EARTH
REF_FRAME      = TEME
TIME_SYSTEM    = UTC
MEAN_ELEMENT_THEORY = SGP/SGP4

EPOCH          = 2025-12-23T04:00:01.998720
MEAN_MOTION    = 15.92098999
ECCENTRICITY   = .0001858
INCLINATION    = 42.9984
RA_OF_ASC_NODE = 252.7828
ARG_OF_PERICENTER = 266.5295
MEAN_ANOMALY   = 302.5087

EPHEMERIS_TYPE = 0
CLASSIFICATION_TYPE = U
NORAD_CAT_ID   = 67127
ELEMENT_SET_NO = 999
REV_AT_EPOCH   = 248
BSTAR          = -.56683E-2
MEAN_MOTION_DOT = -.1947222E-1
MEAN_MOTION_DDOT = .10286E-2

CCSDS_OMM_VERS = 2.0
CREATION_DATE  = 
ORIGINATOR     = 

OBJECT_NAME    = STARLINK-35685
OBJECT_ID      = 2025-299AC
CENTER_NAME    = EARTH
REF_FRAME      = TEME
TIME_SYSTEM    = UTC
MEAN_ELEMENT_THEORY = SGP/SGP4

EPOCH          = 2025-12-23T04:00:01.998720
MEAN_MOTION    = 15.92078492
ECCENTRICITY   = .0001952
INCLINATION    = 42.9981
RA_OF_ASC_NODE = 252.7701
ARG_OF_PERICENTER = 269.2118
MEAN_ANOMALY   = 304.7163

EPHEMERIS_TYPE = 0
CLASSIFICATION_TYPE = U
NORAD_CAT_ID   = 67128
ELEMENT_SET_NO = 999
REV_AT_EPOCH   = 248
BSTAR          = -.5706E-2
MEAN_MOTION_DOT = -.195797E-1
MEAN_MOTION_DDOT = .1039E-2

CCSDS_OMM_VERS = 2.0
CREATION_DATE  = 
ORIGINATOR     = 

OBJECT_NAME    = STARLINK-36214
OBJECT_ID      = 2025-299AD
CENTER_NAME    = EARTH
REF_FRAME      = TEME
TIME_SYSTEM    = UTC
MEAN_ELEMENT_THEORY = SGP/SGP4

EPOCH          = 2025-12-23T04:00:01.998720
MEAN_MOTION    = 15.92104688
ECCENTRICITY   = .0001438
INCLINATION    = 42.9983
RA_OF_ASC_NODE = 252.7775
ARG_OF_PERICENTER = 275.3513
MEAN_ANOMALY   = 295.6598

EPHEMERIS_TYPE = 0
CLASSIFICATION_TYPE = U
NORAD_CAT_ID   = 67129
ELEMENT_SET_NO = 999
REV_AT_EPOCH   = 248
BSTAR          = -.57309E-2
MEAN_MOTION_DOT = -.1968885E-1
MEAN_MOTION_DDOT = .10501E-2

CCSDS_OMM_VERS = 2.0
CREATION_DATE  = 
ORIGINATOR     = 

OBJECT_NAME    = STARLINK-36194
OBJECT_ID      = 2025-299AE
CENTER_NAME    = EARTH
REF_FRAME      = TEME
TIME_SYSTEM    = UTC
MEAN_ELEMENT_THEORY = SGP/SGP4

EPOCH          = 2025-12-23T04:00:01.998720
MEAN_MOTION    = 15.91996404
ECCENTRICITY   = .0001491
INCLINATION    = 42.9981
RA_OF_ASC_NODE = 252.7581
ARG_OF_PERICENTER = 271.2211
MEAN_ANOMALY   = 308.1401

EPHEMERIS_TYPE = 0
CLASSIFICATION_TYPE = U
NORAD_CAT_ID   = 67130
ELEMENT_SET_NO = 999
REV_AT_EPOCH   = 248
BSTAR          = -.57999E-2
MEAN_MOTION_DOT = -.1981239E-1
MEAN_MOTION_DDOT = .10613E-2

CCSDS_OMM_VERS = 2.0
CREATION_DATE  = 
ORIGINATOR     = 

OBJECT_NAME    = ZIYUAN 3-04 (ZY 3-04)
OBJECT_ID      = 2025-300A
CENTER_NAME    = EARTH
REF_FRAME      = TEME
TIME_SYSTEM    = UTC
MEAN_ELEMENT_THEORY = SGP/SGP4

EPOCH          = 2025-12-21T18:22:34.187808
MEAN_MOTION    = 15.21179479
ECCENTRICITY   = .00027623
INCLINATION    = 97.4922
RA_OF_ASC_NODE = 69.8294
ARG_OF_PERICENTER = 167.6924
MEAN_ANOMALY   = 192.4380

EPHEMERIS_TYPE = 0
CLASSIFICATION_TYPE = U
NORAD_CAT_ID   = 67131
ELEMENT_SET_NO = 999
REV_AT_EPOCH   = 86
BSTAR          = .65769783E-4
MEAN_MOTION_DOT = .1396E-4
MEAN_MOTION_DDOT = 0

CCSDS_OMM_VERS = 2.0
CREATION_DATE  = 
ORIGINATOR     = 

OBJECT_NAME    = CZ-4B R/B
OBJECT_ID      = 2025-300B
CENTER_NAME    = EARTH
REF_FRAME      = TEME
TIME_SYSTEM    = UTC
MEAN_ELEMENT_THEORY = SGP/SGP4

EPOCH          = 2025-12-18T16:13:04.609056
MEAN_MOTION    = 15.63831828
ECCENTRICITY   = .01741973
INCLINATION    = 97.5563
RA_OF_ASC_NODE = 66.9660
ARG_OF_PERICENTER = 9.3582
MEAN_ANOMALY   = 351.0851

EPHEMERIS_TYPE = 0
CLASSIFICATION_TYPE = U
NORAD_CAT_ID   = 67132
ELEMENT_SET_NO = 999
REV_AT_EPOCH   = 40
BSTAR          = .19566238E-3
MEAN_MOTION_DOT = .40543E-3
MEAN_MOTION_DDOT = .2652968E-5

