STARLINK-36124          
1 67121U 25299V   25357.16668980 -.01992649  10737-2 -58079-2 0  9993
2 67121  42.9982 252.8029 0001348 265.1282 295.9342 15.92081892  2486
STARLINK-36188          
1 67122U 25299W   25357.16668980 -.01956496  10375-2 -57038-2 0  9996
2 67122  42.9985 252.7994 0001369 258.1475 304.3259 15.92073099  2481
STARLINK-36151          
1 67123U 25299X   25357.16668980 -.01963215  10440-2 -57273-2 0  9998
2 67123  42.9987 252.8075 0001744 275.3101 284.0291 15.92059682  2481
STARLINK-36195          
1 67124U 25299Y   25357.16668980 -.01959728  10408-2 -57089-2 0  9992
2 67124  42.9986 252.7955 0001953 269.4670 294.5974 15.92086403  2489
STARLINK-36219          
1 67125U 25299Z   25357.16668980 -.01963134  10443-2 -57169-2 0  9997
2 67125  42.9984 252.7915 0001509 272.2686 293.2941 15.92094559  2481
STARLINK-36223          
1 67126U 25299AA  25357.16668980 -.01959558  10408-2 -57057-2 0  9990
2 67126  42.9984 252.7870 0001819 268.8484 298.5509 15.92095934  2489
STARLINK-36164          
1 67127U 25299AB  25357.16668980 -.01947222  10286-2 -56683-2 0  9994
2 67127  42.9984 252.7828 0001858 266.5295 302.5087 15.92098999  2482
STARLINK-35685          
1 67128U 25299AC  25357.16668980 -.01957970  10390-2 -57060-2 0  9992
2 67128  42.9981 252.7701 0001952 269.2118 304.7163 15.92078492  2484
STARLINK-36214          
1 67129U 25299AD  25357.16668980 -.01968885  10501-2 -57309-2 0  9990
2 67129  42.9983 252.7775 0001438 275.3513 295.6598 15.92104688  2481
STARLINK-36194          
1 67130U 25299AE  25357.16668980 -.01981239  10613-2 -57999-2 0  9999
2 67130  42.9981 252.7581 0001491 271.2211 308.1401 15.91996404  2482
ZIYUAN 3-04 (ZY 3-04)   
1 67131U 25300A   25355.76567347  .00001396  00000+0  65770-4 0  9990
2 67131  97.4922  69.8294 0002762 167.6924 192.4380 15.21179479   860
CZ-4B R/B               
1 67132U 25300B   25352.67574779  .00040543  26530-5  19566-3 0  9995
2 67132  97.5563  66.9660 0174197   9.3582 351.0851 15.63831828   407
